{"type": "FeatureCollection", "features": [ {"type": "Feature", "properties": {"norad_id": 67058, "name": "STARLINK-35767", "group": "last-30-days", "lat": 13.829762513577291, "lon": 156.43441416468576, "alt_km": 294.2052705881051, "timestamp": "2025-12-19T10:49:59.925943+00:00", "meta": {"OBJECT_NAME": "STARLINK-35767", "OBJECT_ID": "2025-294AE", "EPOCH": "2025-12-18T22:00:00.999936", "MEAN_MOTION": 15.94003933, "ECCENTRICITY": 0.00014972, "INCLINATION": 43.0002, "RA_OF_ASC_NODE": 144.4483, "ARG_OF_PERICENTER": 266.1097, "MEAN_ANOMALY": 283.9662, "EPHEMERIS_TYPE": 0, "CLASSIFICATION_TYPE": "U", "NORAD_CAT_ID": 67058, "ELEMENT_SET_NO": 999, "REV_AT_EPOCH": 130, "BSTAR": -0.0044237467, "MEAN_MOTION_DOT": -0.01683165, "MEAN_MOTION_DDOT": 0.00080004381}, "tle": {"line1": "1 67058U 25294AE  25352.91667824 -.01683165  80004-3 -44237-2 0  9997", "line2": "2 67058  43.0002 144.4483 0001497 266.1097 283.9662 15.94003933  1304"}}, "geometry": {"type": "Point", "coordinates": [156.43441416468576, 13.829762513577291]}}, {"type": "Feature", "properties": {"norad_id": 67059, "name": "HULIANWANG DIGUI-119", "group": "last-30-days", "lat": 49.55032715956795, "lon": 83.97551382213173, "alt_km": 809.5900921447592, "timestamp": "2025-12-19T10:49:59.925953+00:00", "meta": {"OBJECT_NAME": "HULIANWANG DIGUI-119", "OBJECT_ID": "2025-295A", "EPOCH": "2025-12-17T11:16:29.850816", "MEAN_MOTION": 14.25569756, "ECCENTRICITY": 0.00138963, "INCLINATION": 50.007, "RA_OF_ASC_NODE": 352.2731, "ARG_OF_PERICENTER": 264.5159, "MEAN_ANOMALY": 95.417, "EPHEMERIS_TYPE": 0, "CLASSIFICATION_TYPE": "U", "NORAD_CAT_ID": 67059, "ELEMENT_SET_NO": 999, "REV_AT_EPOCH": 79, "BSTAR": -9.003402e-06, "MEAN_MOTION_DOT": -1.82e-06, "MEAN_MOTION_DDOT": 0}, "tle": {"line1": "1 67059U 25295A   25351.46978994 -.00000182  00000+0 -90034-5 0  9995", "line2": "2 67059  50.0070 352.2731 0013896 264.5159  95.4170 14.25569756   795"}}, "geometry": {"type": "Point", "coordinates": [83.97551382213173, 49.55032715956795]}}, {"type": "Feature", "properties": {"norad_id": 67060, "name": "HULIANWANG DIGUI-120", "group": "last-30-days", "lat": 48.92825583440949, "lon": 89.47169324201754, "alt_km": 808.6275522367214, "timestamp": "2025-12-19T10:49:59.925963+00:00", "meta": {"OBJECT_NAME": "HULIANWANG DIGUI-120", "OBJECT_ID": "2025-295B", "EPOCH": "2025-12-15T17:12:24.401376", "MEAN_MOTION": 14.25706335, "ECCENTRICITY": 0.00132237, "INCLINATION": 50.005, "RA_OF_ASC_NODE": 359.6709, "ARG_OF_PERICENTER": 257.265, "MEAN_ANOMALY": 102.6786, "EPHEMERIS_TYPE": 0, "CLASSIFICATION_TYPE": "U", "NORAD_CAT_ID": 67060, "ELEMENT_SET_NO": 999, "REV_AT_EPOCH": 54, "BSTAR": 6.6896441e-05, "MEAN_MOTION_DOT": 0, "MEAN_MOTION_DDOT": 0}, "tle": {"line1": "1 67060U 25295B   25349.71694909  .00000000  00000+0  66896-4 0  9998", "line2": "2 67060  50.0050 359.6709 0013223 257.2650 102.6786 14.25706335   543"}}, "geometry": {"type": "Point", "coordinates": [89.47169324201754, 48.92825583440949]}}, {"type": "Feature", "properties": {"norad_id": 67061, "name": "HULIANWANG DIGUI-121", "group": "last-30-days", "lat": 48.83383258257728, "lon": 90.1016127423922, "alt_km": 808.5543596976304, "timestamp": "2025-12-19T10:49:59.925973+00:00", "meta": {"OBJECT_NAME": "HULIANWANG DIGUI-121", "OBJECT_ID": "2025-295C", "EPOCH": "2025-12-15T17:12:22.292352", "MEAN_MOTION": 14.25729079, "ECCENTRICITY": 0.00132682, "INCLINATION": 50.0012, "RA_OF_ASC_NODE": 359.6606, "ARG_OF_PERICENTER": 256.3366, "MEAN_ANOMALY": 103.6071, "EPHEMERIS_TYPE": 0, "CLASSIFICATION_TYPE": "U", "NORAD_CAT_ID": 67061, "ELEMENT_SET_NO": 999, "REV_AT_EPOCH": 54, "BSTAR": 6.6638352e-05, "MEAN_MOTION_DOT": -1e-08, "MEAN_MOTION_DDOT": 0}, "tle": {"line1": "1 67061U 25295C   25349.71692468 -.00000001  00000+0  66638-4 0  9993", "line2": "2 67061  50.0012 359.6606 0013268 256.3366 103.6071 14.25729079   549"}}, "geometry": {"type": "Point", "coordinates": [90.1016127423922, 48.83383258257728]}}, {"type": "Feature", "properties": {"norad_id": 67062, "name": "HULIANWANG DIGUI-122", "group": "last-30-days", "lat": 48.64254634806855, "lon": 91.41495118701711, "alt_km": 808.5739526190855, "timestamp": "2025-12-19T10:49:59.925985+00:00", "meta": {"OBJECT_NAME": "HULIANWANG DIGUI-122", "OBJECT_ID": "2025-295D", "EPOCH": "2025-12-18T22:35:01.320864", "MEAN_MOTION": 14.25754897, "ECCENTRICITY": 0.00131647, "INCLINATION": 50.0054, "RA_OF_ASC_NODE": 346.0535, "ARG_OF_PERICENTER": 275.0789, "MEAN_ANOMALY": 84.8622, "EPHEMERIS_TYPE": 0, "CLASSIFICATION_TYPE": "U", "NORAD_CAT_ID": 67062, "ELEMENT_SET_NO": 999, "REV_AT_EPOCH": 100, "BSTAR": 0.0001348212, "MEAN_MOTION_DOT": 1.62e-06, "MEAN_MOTION_DDOT": 0}, "tle": {"line1": "1 67062U 25295D   25352.94098751  .00000162  00000+0  13482-3 0  9993", "line2": "2 67062  50.0054 346.0535 0013164 275.0789  84.8622 14.25754897  1009"}}, "geometry": {"type": "Point", "coordinates": [91.41495118701711, 48.64254634806855]}}, {"type": "Feature", "properties": {"norad_id": 67063, "name": "HULIANWANG DIGUI-123", "group": "last-30-days", "lat": 47.706088485049015, "lon": 96.56239540694816, "alt_km": 807.6880671290892, "timestamp": "2025-12-19T10:49:59.925996+00:00", "meta": {"OBJECT_NAME": "HULIANWANG DIGUI-123", "OBJECT_ID": "2025-295E", "EPOCH": "2025-12-18T22:34:05.596320", "MEAN_MOTION": 14.25887768, "ECCENTRICITY": 0.0012481, "INCLINATION": 50.0061, "RA_OF_ASC_NODE": 346.0525, "ARG_OF_PERICENTER": 274.2499, "MEAN_ANOMALY": 85.6989, "EPHEMERIS_TYPE": 0, "CLASSIFICATION_TYPE": "U", "NORAD_CAT_ID": 67063, "ELEMENT_SET_NO": 999, "REV_AT_EPOCH": 100, "BSTAR": 0.00013963355, "MEAN_MOTION_DOT": 1.75e-06, "MEAN_MOTION_DDOT": 0}, "tle": {"line1": "1 67063U 25295E   25352.94034255  .00000175  00000+0  13963-3 0  9991", "line2": "2 67063  50.0061 346.0525 0012481 274.2499  85.6989 14.25887768  1006"}}, "geometry": {"type": "Point", "coordinates": [96.56239540694816, 47.706088485049015]}}, {"type": "Feature", "properties": {"norad_id": 67064, "name": "HULIANWANG DIGUI-124", "group": "last-30-days", "lat": 47.20727625982226, "lon": 98.80427158705722, "alt_km": 807.0398499935427, "timestamp": "2025-12-19T10:49:59.926008+00:00", "meta": {"OBJECT_NAME": "HULIANWANG DIGUI-124", "OBJECT_ID": "2025-295F", "EPOCH": "2025-12-18T00:41:45.177504", "MEAN_MOTION": 14.25947801, "ECCENTRICITY": 0.0012069, "INCLINATION": 50.0037, "RA_OF_ASC_NODE": 349.8867, "ARG_OF_PERICENTER": 265.6344, "MEAN_ANOMALY": 94.3191, "EPHEMERIS_TYPE": 0, "CLASSIFICATION_TYPE": "U", "NORAD_CAT_ID": 67064, "ELEMENT_SET_NO": 999, "REV_AT_EPOCH": 87, "BSTAR": -0.00021481981, "MEAN_MOTION_DOT": -6.76e-06, "MEAN_MOTION_DDOT": 0}, "tle": {"line1": "1 67064U 25295F   25352.02899511 -.00000676  00000+0 -21482-3 0  9998", "line2": "2 67064  50.0037 349.8867 0012069 265.6344  94.3191 14.25947801   876"}}, "geometry": {"type": "Point", "coordinates": [98.80427158705722, 47.20727625982226]}}, {"type": "Feature", "properties": {"norad_id": 67065, "name": "HULIANWANG DIGUI-125", "group": "last-30-days", "lat": 47.15843082730676, "lon": 99.00186999734629, "alt_km": 807.371521744717, "timestamp": "2025-12-19T10:49:59.926018+00:00", "meta": {"OBJECT_NAME": "HULIANWANG DIGUI-125", "OBJECT_ID": "2025-295G", "EPOCH": "2025-12-18T22:33:38.245536", "MEAN_MOTION": 14.25953438, "ECCENTRICITY": 0.00122793, "INCLINATION": 50.0011, "RA_OF_ASC_NODE": 346.0362, "ARG_OF_PERICENTER": 274.8465, "MEAN_ANOMALY": 85.1046, "EPHEMERIS_TYPE": 0, "CLASSIFICATION_TYPE": "U", "NORAD_CAT_ID": 67065, "ELEMENT_SET_NO": 999, "REV_AT_EPOCH": 100, "BSTAR": 0.00013242128, "MEAN_MOTION_DOT": 1.58e-06, "MEAN_MOTION_DDOT": 0}, "tle": {"line1": "1 67065U 25295G   25352.94002599  .00000158  00000+0  13242-3 0  9990", "line2": "2 67065  50.0011 346.0362 0012279 274.8465  85.1046 14.25953438  1003"}}, "geometry": {"type": "Point", "coordinates": [99.00186999734629, 47.15843082730676]}}, {"type": "Feature", "properties": {"norad_id": 67066, "name": "HULIANWANG DIGUI-126", "group": "last-30-days", "lat": 45.755932153403826, "lon": 104.31999998189569, "alt_km": 806.2720859066249, "timestamp": "2025-12-19T10:49:59.926030+00:00", "meta": {"OBJECT_NAME": "HULIANWANG DIGUI-126", "OBJECT_ID": "2025-295H", "EPOCH": "2025-12-18T22:32:36.658752", "MEAN_MOTION": 14.26096405, "ECCENTRICITY": 0.00114415, "INCLINATION": 50.0014, "RA_OF_ASC_NODE": 346.0317, "ARG_OF_PERICENTER": 271.9952, "MEAN_ANOMALY": 87.9652, "EPHEMERIS_TYPE": 0, "CLASSIFICATION_TYPE": "U", "NORAD_CAT_ID": 67066, "ELEMENT_SET_NO": 999, "REV_AT_EPOCH": 100, "BSTAR": 0.00013188769, "MEAN_MOTION_DOT": 1.57e-06, "MEAN_MOTION_DDOT": 0}, "tle": {"line1": "1 67066U 25295H   25352.93931318  .00000157  00000+0  13189-3 0  9999", "line2": "2 67066  50.0014 346.0317 0011441 271.9952  87.9652 14.26096405  1002"}}, "geometry": {"type": "Point", "coordinates": [104.31999998189569, 45.755932153403826]}}, {"type": "Feature", "properties": {"norad_id": 67067, "name": "HULIANWANG DIGUI-127", "group": "last-30-days", "lat": 44.24604745558047, "lon": 109.01541050752866, "alt_km": 805.5979396721759, "timestamp": "2025-12-19T10:49:59.926041+00:00", "meta": {"OBJECT_NAME": "HULIANWANG DIGUI-127", "OBJECT_ID": "2025-295J", "EPOCH": "2025-12-18T22:31:40.341504", "MEAN_MOTION": 14.26250016, "ECCENTRICITY": 0.00108631, "INCLINATION": 50.0053, "RA_OF_ASC_NODE": 346.0354, "ARG_OF_PERICENTER": 276.0281, "MEAN_ANOMALY": 83.9395, "EPHEMERIS_TYPE": 0, "CLASSIFICATION_TYPE": "U", "NORAD_CAT_ID": 67067, "ELEMENT_SET_NO": 999, "REV_AT_EPOCH": 100, "BSTAR": -0.00028632511, "MEAN_MOTION_DOT": -8.52e-06, "MEAN_MOTION_DDOT": 0}, "tle": {"line1": "1 67067U 25295J   25352.93866136 -.00000852  00000+0 -28633-3 0  9999", "line2": "2 67067  50.0053 346.0354 0010863 276.0281  83.9395 14.26250016  1005"}}, "geometry": {"type": "Point", "coordinates": [109.01541050752866, 44.24604745558047]}}]}